GLOBALSTAR M001 [-]     
1 25162U 98008A   23266.64653861 -.00000092  00000+0  34228-4 0  9993
2 25162  52.0063  14.2115 0001531  26.2787  82.8655 12.38167592165460
GLOBALSTAR M004 [-]     
1 25163U 98008B   23267.12086744 -.00000086  00000+0  10193-3 0  9995
2 25163  51.9987 182.3513 0003100 338.4187 161.2041 12.63338401181892
GLOBALSTAR M002 [-]     
1 25164U 98008C   23266.55382098 -.00000088  00000+0 -23204-3 0  9993
2 25164  52.0047  26.4045 0001932  78.0853 282.0183 11.61495100110559
GLOBALSTAR M003 [-]     
1 25165U 98008D   23266.75268128  .00000021  00000+0  11826-2 0  9994
2 25165  51.9725 120.2470 0008526  99.2990 339.6483 12.11938939156627
GLOBALSTAR M014 [-]     
1 25306U 98023A   23267.11342436 -.00000045  00000+0  60727-3 0  9996
2 25306  51.9857 321.5159 0000504 268.9544 108.7730 11.65459831117464
GLOBALSTAR M006 [-]     
1 25307U 98023B   23266.42422625 -.00000065  00000+0  21116-3 0  9990
2 25307  51.9976 352.0808 0003815  58.3580  22.4550 11.58153889143519
GLOBALSTAR M015 [-]     
1 25308U 98023C   23266.89155274 -.00000051  00000+0  52427-3 0  9999
2 25308  51.9829  60.4148 0012935  35.7806 133.4274 11.48849768121785
GLOBALSTAR M008 [-]     
1 25309U 98023D   23266.32925177 -.00000060  00000+0  28339-3 0  9990
2 25309  51.9952 232.8023 0002331 288.2265 237.8917 12.36028034159588
